[
  {
    "OBJECT_NAME": "SKYSAT-B",
    "OBJECT_ID": "2014-037D",
    "EPOCH": "2025-05-04T01:24:08.171424",
    "MEAN_MOTION": 14.86422197,
    "ECCENTRICITY": 0.000634,
    "INCLINATION": 98.3405,
    "RA_OF_ASC_NODE": 56.5738,
    "ARG_OF_PERICENTER": 151.5333,
    "MEAN_ANOMALY": 208.6229,
    "EPHEMERIS_TYPE": 0,
    "CLASSIFICATION_TYPE": "U",
    "NORAD_CAT_ID": 40072,
    "ELEMENT_SET_NO": 999,
    "REV_AT_EPOCH": 58523,
    "BSTAR": 0.00023359,
    "MEAN_MOTION_DOT": 2.003e-05,
    "MEAN_MOTION_DDOT": 0
  },
  {
    "OBJECT_NAME": "WORLDVIEW-3 (WV-3)",
    "OBJECT_ID": "2014-048A",
    "EPOCH": "2025-05-04T04:15:29.678112",
    "MEAN_MOTION": 14.85265101,
    "ECCENTRICITY": 0.0004862,
    "INCLINATION": 97.8587,
    "RA_OF_ASC_NODE": 199.1358,
    "ARG_OF_PERICENTER": 212.3812,
    "MEAN_ANOMALY": 147.7105,
    "EPHEMERIS_TYPE": 0,
    "CLASSIFICATION_TYPE": "U",
    "NORAD_CAT_ID": 40115,
    "ELEMENT_SET_NO": 999,
    "REV_AT_EPOCH": 58123,
    "BSTAR": 0.00020347,
    "MEAN_MOTION_DOT": 1.693e-05,
    "MEAN_MOTION_DDOT": 0
  },
  {
    "OBJECT_NAME": "GAOFEN-2",
    "OBJECT_ID": "2014-049A",
    "EPOCH": "2025-05-04T04:03:32.800032",
    "MEAN_MOTION": 14.80429385,
    "ECCENTRICITY": 0.0006071,
    "INCLINATION": 98.062,
    "RA_OF_ASC_NODE": 182.6001,
    "ARG_OF_PERICENTER": 104.719,
    "MEAN_ANOMALY": 255.4695,
    "EPHEMERIS_TYPE": 0,
    "CLASSIFICATION_TYPE": "U",
    "NORAD_CAT_ID": 40118,
    "ELEMENT_SET_NO": 999,
    "REV_AT_EPOCH": 57872,
    "BSTAR": 0.00024405,
    "MEAN_MOTION_DOT": 1.812e-05,
    "MEAN_MOTION_DDOT": 0
  },
  {
    "OBJECT_NAME": "YAOGAN-21",
    "OBJECT_ID": "2014-053A",
    "EPOCH": "2025-05-04T04:28:01.315776",
    "MEAN_MOTION": 15.241251,
    "ECCENTRICITY": 0.0016677,
    "INCLINATION": 97.2023,
    "RA_OF_ASC_NODE": 176.6658,
    "ARG_OF_PERICENTER": 145.7169,
    "MEAN_ANOMALY": 214.5149,
    "EPHEMERIS_TYPE": 0,
    "CLASSIFICATION_TYPE": "U",
    "NORAD_CAT_ID": 40143,
    "ELEMENT_SET_NO": 999,
    "REV_AT_EPOCH": 59269,
    "BSTAR": 0.00043915,
    "MEAN_MOTION_DOT": 0.00010655,
    "MEAN_MOTION_DDOT": 0
  },
  {
    "OBJECT_NAME": "YAOGAN-22",
    "OBJECT_ID": "2014-063A",
    "EPOCH": "2025-05-03T21:01:04.978848",
    "MEAN_MOTION": 13.1550934,
    "ECCENTRICITY": 0.0006577,
    "INCLINATION": 100.71,
    "RA_OF_ASC_NODE": 264.5016,
    "ARG_OF_PERICENTER": 36.9007,
    "MEAN_ANOMALY": 323.2556,
    "EPHEMERIS_TYPE": 0,
    "CLASSIFICATION_TYPE": "U",
    "NORAD_CAT_ID": 40275,
    "ELEMENT_SET_NO": 999,
    "REV_AT_EPOCH": 50599,
    "BSTAR": 0.00014775,
    "MEAN_MOTION_DOT": 9e-08,
    "MEAN_MOTION_DDOT": 0
  },
  {
    "OBJECT_NAME": "ASNARO",
    "OBJECT_ID": "2014-070A",
    "EPOCH": "2025-05-04T04:01:02.201376",
    "MEAN_MOTION": 15.19570385,
    "ECCENTRICITY": 0.0007538,
    "INCLINATION": 97.3787,
    "RA_OF_ASC_NODE": 205.267,
    "ARG_OF_PERICENTER": 149.8909,
    "MEAN_ANOMALY": 210.276,
    "EPHEMERIS_TYPE": 0,
    "CLASSIFICATION_TYPE": "U",
    "NORAD_CAT_ID": 40298,
    "ELEMENT_SET_NO": 999,
    "REV_AT_EPOCH": 58191,
    "BSTAR": 0.00070743,
    "MEAN_MOTION_DOT": 0.00015011,
    "MEAN_MOTION_DDOT": 0
  },
  {
    "OBJECT_NAME": "YAOGAN-24",
    "OBJECT_ID": "2014-072A",
    "EPOCH": "2025-05-04T05:04:52.762656",
    "MEAN_MOTION": 14.7613063,
    "ECCENTRICITY": 0.0015153,
    "INCLINATION": 98.0935,
    "RA_OF_ASC_NODE": 254.5221,
    "ARG_OF_PERICENTER": 135.8678,
    "MEAN_ANOMALY": 224.3743,
    "EPHEMERIS_TYPE": 0,
    "CLASSIFICATION_TYPE": "U",
    "NORAD_CAT_ID": 40310,
    "ELEMENT_SET_NO": 999,
    "REV_AT_EPOCH": 56340,
    "BSTAR": 0.00024089,
    "MEAN_MOTION_DOT": 1.614e-05,
    "MEAN_MOTION_DDOT": 0
  },
  {
    "OBJECT_NAME": "CBERS 4",
    "OBJECT_ID": "2014-079A",
    "EPOCH": "2025-05-04T04:01:41.633472",
    "MEAN_MOTION": 14.35494662,
    "ECCENTRICITY": 0.0002087,
    "INCLINATION": 98.3555,
    "RA_OF_ASC_NODE": 189.3977,
    "ARG_OF_PERICENTER": 97.0166,
    "MEAN_ANOMALY": 263.1257,
    "EPHEMERIS_TYPE": 0,
    "CLASSIFICATION_TYPE": "U",
    "NORAD_CAT_ID": 40336,
    "ELEMENT_SET_NO": 999,
    "REV_AT_EPOCH": 54529,
    "BSTAR": 0.00010492,
    "MEAN_MOTION_DOT": 2.59e-06,
    "MEAN_MOTION_DDOT": 0
  },
  {
    "OBJECT_NAME": "YAOGAN-26",
    "OBJECT_ID": "2014-088A",
    "EPOCH": "2025-05-04T03:57:56.670336",
    "MEAN_MOTION": 15.31758944,
    "ECCENTRICITY": 0.0008538,
    "INCLINATION": 97.0664,
    "RA_OF_ASC_NODE": 134.1195,
    "ARG_OF_PERICENTER": 91.9767,
    "MEAN_ANOMALY": 268.2453,
    "EPHEMERIS_TYPE": 0,
    "CLASSIFICATION_TYPE": "U",
    "NORAD_CAT_ID": 40362,
    "ELEMENT_SET_NO": 999,
    "REV_AT_EPOCH": 57625,
    "BSTAR": 0.00057356,
    "MEAN_MOTION_DOT": 0.00017555,
    "MEAN_MOTION_DDOT": 0
  },
  {
    "OBJECT_NAME": "SMAP",
    "OBJECT_ID": "2015-003A",
    "EPOCH": "2025-05-04T04:34:28.015392",
    "MEAN_MOTION": 14.6336298,
    "ECCENTRICITY": 0.0001361,
    "INCLINATION": 98.1289,
    "RA_OF_ASC_NODE": 132.0518,
    "ARG_OF_PERICENTER": 105.3396,
    "MEAN_ANOMALY": 254.7957,
    "EPHEMERIS_TYPE": 0,
    "CLASSIFICATION_TYPE": "U",
    "NORAD_CAT_ID": 40376,
    "ELEMENT_SET_NO": 999,
    "REV_AT_EPOCH": 54780,
    "BSTAR": 0.00019133,
    "MEAN_MOTION_DOT": 9.42e-06,
    "MEAN_MOTION_DDOT": 0
  },
  {
    "OBJECT_NAME": "KOMPSAT-3A",
    "OBJECT_ID": "2015-014A",
    "EPOCH": "2025-05-04T03:41:13.389216",
    "MEAN_MOTION": 15.35691326,
    "ECCENTRICITY": 7.38e-05,
    "INCLINATION": 97.6539,
    "RA_OF_ASC_NODE": 88.2568,
    "ARG_OF_PERICENTER": 144.3514,
    "MEAN_ANOMALY": 215.7778,
    "EPHEMERIS_TYPE": 0,
    "CLASSIFICATION_TYPE": "U",
    "NORAD_CAT_ID": 40536,
    "ELEMENT_SET_NO": 999,
    "REV_AT_EPOCH": 55873,
    "BSTAR": 0.00052122,
    "MEAN_MOTION_DOT": 0.00018028,
    "MEAN_MOTION_DDOT": 0
  },
  {
    "OBJECT_NAME": "SENTINEL-2A",
    "OBJECT_ID": "2015-028A",
    "EPOCH": "2025-05-04T04:38:54.144672",
    "MEAN_MOTION": 14.30822142,
    "ECCENTRICITY": 0.0001129,
    "INCLINATION": 98.57,
    "RA_OF_ASC_NODE": 199.8962,
    "ARG_OF_PERICENTER": 100.7471,
    "MEAN_ANOMALY": 259.3839,
    "EPHEMERIS_TYPE": 0,
    "CLASSIFICATION_TYPE": "U",
    "NORAD_CAT_ID": 40697,
    "ELEMENT_SET_NO": 999,
    "REV_AT_EPOCH": 51524,
    "BSTAR": 0.00011059,
    "MEAN_MOTION_DOT": 2.46e-06,
    "MEAN_MOTION_DDOT": 0
  },
  {
    "OBJECT_NAME": "GAOFEN-8",
    "OBJECT_ID": "2015-030A",
    "EPOCH": "2025-05-04T04:27:31.849920",
    "MEAN_MOTION": 15.31316059,
    "ECCENTRICITY": 0.0012584,
    "INCLINATION": 97.6872,
    "RA_OF_ASC_NODE": 293.0094,
    "ARG_OF_PERICENTER": 199.7789,
    "MEAN_ANOMALY": 160.2965,
    "EPHEMERIS_TYPE": 0,
    "CLASSIFICATION_TYPE": "U",
    "NORAD_CAT_ID": 40701,
    "ELEMENT_SET_NO": 999,
    "REV_AT_EPOCH": 54858,
    "BSTAR": 0.00067016,
    "MEAN_MOTION_DOT": 0.00020268,
    "MEAN_MOTION_DDOT": 0
  },
  {
    "OBJECT_NAME": "CARBONITE 1 (CBNT-1)",
    "OBJECT_ID": "2015-032D",
    "EPOCH": "2025-05-04T04:37:01.775424",
    "MEAN_MOTION": 14.81627435,
    "ECCENTRICITY": 0.0014688,
    "INCLINATION": 97.6458,
    "RA_OF_ASC_NODE": 315.2159,
    "ARG_OF_PERICENTER": 190.0772,
    "MEAN_ANOMALY": 170.0149,
    "EPHEMERIS_TYPE": 0,
    "CLASSIFICATION_TYPE": "U",
    "NORAD_CAT_ID": 40718,
    "ELEMENT_SET_NO": 999,
    "REV_AT_EPOCH": 52874,
    "BSTAR": 0.0004023,
    "MEAN_MOTION_DOT": 3.119e-05,
    "MEAN_MOTION_DDOT": 0
  }
]