SKYSAT-B                
1 40072U 14037D   25124.05842791  .00002003  00000+0  23359-3 0  9997
2 40072  98.3405  56.5738 0006340 151.5333 208.6229 14.86422197585238
WORLDVIEW-3 (WV-3)      
1 40115U 14048A   25124.17742683  .00001693  00000+0  20347-3 0  9997
2 40115  97.8587 199.1358 0004862 212.3812 147.7105 14.85265101581239
GAOFEN-2                
1 40118U 14049A   25124.16912963  .00001812  00000+0  24405-3 0  9992
2 40118  98.0620 182.6001 0006071 104.7190 255.4695 14.80429385578724
YAOGAN-21               
1 40143U 14053A   25124.18612634  .00010655  00000+0  43915-3 0  9991
2 40143  97.2023 176.6658 0016677 145.7169 214.5149 15.24125100592694
YAOGAN-22               
1 40275U 14063A   25123.87575207  .00000009  00000+0  14775-3 0  9991
2 40275 100.7100 264.5016 0006577  36.9007 323.2556 13.15509340505998
ASNARO                  
1 40298U 14070A   25124.16738659  .00015011  00000+0  70743-3 0  9995
2 40298  97.3787 205.2670 0007538 149.8909 210.2760 15.19570385581917
YAOGAN-24               
1 40310U 14072A   25124.21172179  .00001614  00000+0  24089-3 0  9993
2 40310  98.0935 254.5221 0015153 135.8678 224.3743 14.76130630563402
CBERS 4                 
1 40336U 14079A   25124.16784298  .00000259  00000+0  10492-3 0  9990
2 40336  98.3555 189.3977 0002087  97.0166 263.1257 14.35494662545298
YAOGAN-26               
1 40362U 14088A   25124.16523924  .00017555  00000+0  57356-3 0  9993
2 40362  97.0664 134.1195 0008538  91.9767 268.2453 15.31758944576258
SMAP                    
1 40376U 15003A   25124.19060203  .00000942  00000+0  19133-3 0  9998
2 40376  98.1289 132.0518 0001361 105.3396 254.7957 14.63362980547802
KOMPSAT-3A              
1 40536U 15014A   25124.15362719  .00018028  00000+0  52122-3 0  9990
2 40536  97.6539  88.2568 0000738 144.3514 215.7778 15.35691326558732
SENTINEL-2A             
1 40697U 15028A   25124.19368223  .00000246  00000+0  11059-3 0  9990
2 40697  98.5700 199.8962 0001129 100.7471 259.3839 14.30822142515247
GAOFEN-8                
1 40701U 15030A   25124.18578530  .00020268  00000+0  67016-3 0  9992
2 40701  97.6872 293.0094 0012584 199.7789 160.2965 15.31316059548583
CARBONITE 1 (CBNT-1)    
1 40718U 15032D   25124.19238166  .00003119  00000+0  40230-3 0  9996
2 40718  97.6458 315.2159 0014688 190.0772 170.0149 14.81627435528749
